{
    "links": {
        "self": "http://www.neowsapp.com/rest/v1/neo/3423202?api_key=iIulBulltgU6a56xZRHN4H3l9WmuAYTsLGpBGhQ2"
    },
    "id": "3423202",
    "neo_reference_id": "3423202",
    "name": "(2008 PJ3)",
    "designation": "2008 PJ3",
    "nasa_jpl_url": "http://ssd.jpl.nasa.gov/sbdb.cgi?sstr=3423202",
    "absolute_magnitude_h": 20.4,
    "estimated_diameter": {
        "kilometers": {
            "estimated_diameter_min": 0.2210828104,
            "estimated_diameter_max": 0.4943561926
        },
        "meters": {
            "estimated_diameter_min": 221.0828103591,
            "estimated_diameter_max": 494.3561926196
        },
        "miles": {
            "estimated_diameter_min": 0.137374447,
            "estimated_diameter_max": 0.3071786018
        },
        "feet": {
            "estimated_diameter_min": 725.3373275385,
            "estimated_diameter_max": 1621.9035709942
        }
    },
    "is_potentially_hazardous_asteroid": false,
    "close_approach_data": [
        {
            "close_approach_date": "2008-08-21",
            "close_approach_date_full": "2008-Aug-21 17:39",
            "epoch_date_close_approach": 1219340340000,
            "relative_velocity": {
                "kilometers_per_second": "23.478215878",
                "kilometers_per_hour": "84521.5771609217",
                "miles_per_hour": "52518.4210975738"
            },
            "miss_distance": {
                "astronomical": "0.174783224",
                "lunar": "67.990674136",
                "kilometers": "26147198.02213288",
                "miles": "16247115.462198544"
            },
            "orbiting_body": "Earth"
        }
    ],
    "orbital_data": {
        "orbit_id": "8",
        "orbit_determination_date": "2017-04-06 09:03:08",
        "first_observation_date": "2008-08-03",
        "last_observation_date": "2008-08-18",
        "data_arc_in_days": 15,
        "observations_used": 15,
        "orbit_uncertainty": "9",
        "minimum_orbit_intersection": ".169721",
        "jupiter_tisserand_invariant": "3.676",
        "epoch_osculation": "2454686.5",
        "eccentricity": ".7599692971046343",
        "semi_major_axis": "1.775105900592353",
        "inclination": "11.36088131913588",
        "ascending_node_longitude": "89.60728443221716",
        "orbital_period": "863.8430197743542",
        "perihelion_distance": ".4260799170328936",
        "perihelion_argument": "347.9884101137309",
        "aphelion_distance": "3.124131884151812",
        "perihelion_time": "2454748.100679138553",
        "mean_anomaly": "334.3283860814529",
        "mean_motion": ".4167423846221923",
        "equinox": "J2000",
        "orbit_class": {
            "orbit_class_type": "APO",
            "orbit_class_description": "Near-Earth asteroid orbits which cross the Earth’s orbit similar to that of 1862 Apollo",
            "orbit_class_range": "a (semi-major axis) > 1.0 AU; q (perihelion) < 1.017 AU"
        }
    },
    "is_sentry_object": false
}